{"type":"FeatureCollection","metadata":{"generated":1786778985000,"url":"https://earthquake.usgs.gov/earthquakes/feed/v1.0/summary/significant_month.geojson","title":"USGS Significant Earthquakes, Past Month","status":200,"api":"2.7.0","count":13},"features":[{"type":"Feature","properties":{"mag":7.7,"place":"68 km NNW of Ende, Indonesia","time":1786744701564,"updated":1786777416777,"tz":null,"url":"https://earthquake.usgs.gov/earthquakes/eventpage/us6000tkt2","detail":"https://earthquake.usgs.gov/earthquakes/feed/v1.0/detail/us6000tkt2.geojson","felt":37,"cdi":7.9,"mmi":8.806,"alert":"orange","status":"reviewed","tsunami":0,"sig":1029,"net":"us","code":"6000tkt2","ids":",us6000tkt2,","sources":",us,","types":",dyfi,event-sequence,finite-fault,general-text,ground-failure,losspager,moment-tensor,oaf,origin,phase-data,shakemap,","nst":107,"dmin":3.218,"rms":1.16,"gap":36,"magType":"mww","type":"earthquake","title":"M 7.7 - 68 km NNW of Ende, Indonesia"},"geometry":{"type":"Point","coordinates":[121.3517,-8.3101,10]},"id":"us6000tkt2"},{"type":"Feature","properties":{"mag":3.84,"place":"3 km N of San Leandro, CA","time":1786635004700,"updated":1786771912386,"tz":null,"url":"https://earthquake.usgs.gov/earthquakes/eventpage/nc75417557","detail":"https://earthquake.usgs.gov/earthquakes/feed/v1.0/detail/nc75417557.geojson","felt":7863,"cdi":3.8,"mmi":4.225,"alert":"green","status":"reviewed","tsunami":0,"sig":607,"net":"nc","code":"75417557","ids":",ew1786635000,nc75417557,us6000tkhf,","sources":",ew,nc,us,","types":",dyfi,focal-mechanism,losspager,moment-tensor,nearby-cities,origin,phase-data,scitech-link,shake-alert,shakemap,","nst":204,"dmin":0.01915,"rms":0.18,"gap":16,"magType":"mw","type":"earthquake","title":"M 3.8 - 3 km N of San Leandro, CA"},"geometry":{"type":"Point","coordinates":[-122.150166666667,37.7551666666667,5.55]},"id":"nc75417557"},{"type":"Feature","properties":{"mag":7.4,"place":"5 km S of San José del Palmar, Colombia","time":1786365268125,"updated":1786775695545,"tz":null,"url":"https://earthquake.usgs.gov/earthquakes/eventpage/us6000tjl2","detail":"https://earthquake.usgs.gov/earthquakes/feed/v1.0/detail/us6000tjl2.geojson","felt":1151,"cdi":7.9,"mmi":7.999,"alert":"red","status":"reviewed","tsunami":0,"sig":2790,"net":"us","code":"6000tjl2","ids":",us6000tjl2,attjk09g,pt26222000,","sources":",us,at,pt,","types":",dyfi,event-sequence,finite-fault,general-text,ground-failure,losspager,moment-tensor,oaf,origin,phase-data,shakemap,","nst":151,"dmin":1.515,"rms":0.86,"gap":19,"magType":"mww","type":"earthquake","title":"M 7.4 - 5 km S of San José del Palmar, Colombia"},"geometry":{"type":"Point","coordinates":[-76.2422,4.8436,110.285]},"id":"us6000tjl2"},{"type":"Feature","properties":{"mag":5.6,"place":"57 km WNW of Skwentna, Alaska","time":1786164634985,"updated":1786770038795,"tz":null,"url":"https://earthquake.usgs.gov/earthquakes/eventpage/aka2026powmkf","detail":"https://earthquake.usgs.gov/earthquakes/feed/v1.0/detail/aka2026powmkf.geojson","felt":1137,"cdi":5.4,"mmi":5.879,"alert":null,"status":"reviewed","tsunami":0,"sig":1022,"net":"ak","code":"a2026powmkf","ids":",aka2026powmkf,us6000tj6h,attjfpga,","sources":",ak,us,at,","types":",dyfi,event-sequence,moment-tensor,oaf,origin,phase-data,shakemap,","nst":228,"dmin":0.5,"rms":1.1,"gap":18,"magType":"ml","type":"earthquake","title":"M 5.6 - 57 km WNW of Skwentna, Alaska"},"geometry":{"type":"Point","coordinates":[-152.314,62.269,10]},"id":"aka2026powmkf"},{"type":"Feature","properties":{"mag":6.3,"place":"south of the Kermadec Islands","time":1785915807317,"updated":1786002698507,"tz":null,"url":"https://earthquake.usgs.gov/earthquakes/eventpage/us6000ti8i","detail":"https://earthquake.usgs.gov/earthquakes/feed/v1.0/detail/us6000ti8i.geojson","felt":14,"cdi":3.1,"mmi":3.316,"alert":"green","status":"reviewed","tsunami":0,"sig":615,"net":"us","code":"6000ti8i","ids":",us6000ti8i,","sources":",us,","types":",dyfi,ground-failure,losspager,moment-tensor,origin,phase-data,shakemap,","nst":80,"dmin":3.866,"rms":1.04,"gap":27,"magType":"mww","type":"earthquake","title":"M 6.3 - south of the Kermadec Islands"},"geometry":{"type":"Point","coordinates":[179.4727,-33.8063,226.084]},"id":"us6000ti8i"},{"type":"Feature","properties":{"mag":6.3,"place":"32 km SW of Sarangani, Philippines","time":1785903246625,"updated":1786442549210,"tz":null,"url":"https://earthquake.usgs.gov/earthquakes/eventpage/us6000ti6x","detail":"https://earthquake.usgs.gov/earthquakes/feed/v1.0/detail/us6000ti6x.geojson","felt":66,"cdi":7.5,"mmi":6.822,"alert":"green","status":"reviewed","tsunami":0,"sig":660,"net":"us","code":"6000ti6x","ids":",us6000ti6x,","sources":",us,","types":",dyfi,ground-failure,losspager,moment-tensor,origin,phase-data,shakemap,","nst":83,"dmin":1.9,"rms":1.43,"gap":27,"magType":"mww","type":"earthquake","title":"M 6.3 - 32 km SW of Sarangani, Philippines"},"geometry":{"type":"Point","coordinates":[125.276,5.1812,10]},"id":"us6000ti6x"},{"type":"Feature","properties":{"mag":6.8,"place":"The 2026 Kumamoto Region, Japan Earthquake","time":1785223635512,"updated":1786696100401,"tz":null,"url":"https://earthquake.usgs.gov/earthquakes/eventpage/us6000tgb9","detail":"https://earthquake.usgs.gov/earthquakes/feed/v1.0/detail/us6000tgb9.geojson","felt":92,"cdi":8.7,"mmi":9.243,"alert":"red","status":"reviewed","tsunami":0,"sig":723,"net":"us","code":"6000tgb9","ids":",attivjdk,pt26209004,us6000tgb9,","sources":",at,pt,us,","types":",associate,dyfi,earthquake-name,finite-fault,general-text,ground-failure,losspager,moment-tensor,origin,phase-data,shakemap,significance,","nst":102,"dmin":1.191,"rms":1.38,"gap":39,"magType":"mww","type":"earthquake","title":"M 6.8 - The 2026 Kumamoto Region, Japan Earthquake"},"geometry":{"type":"Point","coordinates":[130.7217,32.6817,10]},"id":"us6000tgb9"},{"type":"Feature","properties":{"mag":5.8,"place":"194 km NW of Oula Xiuma, China","time":1785209645627,"updated":1785821295115,"tz":null,"url":"https://earthquake.usgs.gov/earthquakes/eventpage/us6000tga9","detail":"https://earthquake.usgs.gov/earthquakes/feed/v1.0/detail/us6000tga9.geojson","felt":1,"cdi":2,"mmi":7.348,"alert":"yellow","status":"reviewed","tsunami":0,"sig":650,"net":"us","code":"6000tga9","ids":",us6000tga9,","sources":",us,","types":",dyfi,ground-failure,losspager,origin,phase-data,shakemap,","nst":249,"dmin":3.41,"rms":0.54,"gap":27,"magType":"mww","type":"earthquake","title":"M 5.8 - 194 km NW of Oula Xiuma, China"},"geometry":{"type":"Point","coordinates":[99.5557,35.429,10]},"id":"us6000tga9"},{"type":"Feature","properties":{"mag":5.7,"place":"199 km NW of Oula Xiuma, China","time":1785208568865,"updated":1785887951360,"tz":null,"url":"https://earthquake.usgs.gov/earthquakes/eventpage/us6000tga6","detail":"https://earthquake.usgs.gov/earthquakes/feed/v1.0/detail/us6000tga6.geojson","felt":1,"cdi":2,"mmi":7.1,"alert":"yellow","status":"reviewed","tsunami":0,"sig":650,"net":"us","code":"6000tga6","ids":",us6000tga6,","sources":",us,","types":",dyfi,ground-failure,losspager,moment-tensor,origin,phase-data,shakemap,","nst":267,"dmin":3.476,"rms":0.85,"gap":33,"magType":"mww","type":"earthquake","title":"M 5.7 - 199 km NW of Oula Xiuma, China"},"geometry":{"type":"Point","coordinates":[99.4752,35.4217,10]},"id":"us6000tga6"},{"type":"Feature","properties":{"mag":5,"place":"38 km SSE of Spearman, Texas","time":1784802103909,"updated":1786703513100,"tz":null,"url":"https://earthquake.usgs.gov/earthquakes/eventpage/tx2026ojlaky","detail":"https://earthquake.usgs.gov/earthquakes/feed/v1.0/detail/tx2026ojlaky.geojson","felt":499,"cdi":6.6,"mmi":5.857,"alert":"green","status":"reviewed","tsunami":0,"sig":714,"net":"tx","code":"2026ojlaky","ids":",us7000t2nb,tx2026ojlaky,","sources":",us,tx,","types":",dyfi,event-sequence,losspager,moment-tensor,oaf,origin,phase-data,shakemap,","nst":14,"dmin":0.4,"rms":0.3,"gap":71,"magType":"ml","type":"earthquake","title":"M 5.0 - 38 km SSE of Spearman, Texas"},"geometry":{"type":"Point","coordinates":[-100.976,35.902,5.6885]},"id":"tx2026ojlaky"},{"type":"Feature","properties":{"mag":5.5,"place":"5 km S of Chambara, Peru","time":1784427875593,"updated":1786492171035,"tz":null,"url":"https://earthquake.usgs.gov/earthquakes/eventpage/us7000t1q7","detail":"https://earthquake.usgs.gov/earthquakes/feed/v1.0/detail/us7000t1q7.geojson","felt":14,"cdi":7.1,"mmi":7.162,"alert":"yellow","status":"reviewed","tsunami":0,"sig":660,"net":"us","code":"7000t1q7","ids":",us7000t1q7,","sources":",us,","types":",dyfi,ground-failure,impact-text,losspager,moment-tensor,origin,phase-data,shakemap,","nst":202,"dmin":1.432,"rms":0.65,"gap":33,"magType":"mww","type":"earthquake","title":"M 5.5 - 5 km S of Chambara, Peru"},"geometry":{"type":"Point","coordinates":[-75.3819,-12.08,10]},"id":"us7000t1q7"},{"type":"Feature","properties":{"mag":6.4,"place":"96 km SW of Puerto Madero, Mexico","time":1784301606587,"updated":1786290159378,"tz":null,"url":"https://earthquake.usgs.gov/earthquakes/eventpage/us7000t1cc","detail":"https://earthquake.usgs.gov/earthquakes/feed/v1.0/detail/us7000t1cc.geojson","felt":2,"cdi":3.8,"mmi":4.612,"alert":"green","status":"reviewed","tsunami":0,"sig":631,"net":"us","code":"7000t1cc","ids":",us7000t1cc,","sources":",us,","types":",dyfi,ground-failure,losspager,moment-tensor,origin,phase-data,shakemap,","nst":95,"dmin":2.281,"rms":1.31,"gap":61,"magType":"mww","type":"earthquake","title":"M 6.4 - 96 km SW of Puerto Madero, Mexico"},"geometry":{"type":"Point","coordinates":[-93.1385,14.2039,10]},"id":"us7000t1cc"},{"type":"Feature","properties":{"mag":7.3,"place":"52 km W of Puerto Madero, Mexico","time":1784299720227,"updated":1786512832167,"tz":null,"url":"https://earthquake.usgs.gov/earthquakes/eventpage/us7000t1bu","detail":"https://earthquake.usgs.gov/earthquakes/feed/v1.0/detail/us7000t1bu.geojson","felt":288,"cdi":7.4,"mmi":7.027,"alert":"yellow","status":"reviewed","tsunami":0,"sig":1033,"net":"us","code":"7000t1bu","ids":",attibqh8,us7000t1bu,","sources":",at,us,","types":",dyfi,finite-fault,general-text,ground-failure,impact-text,losspager,moment-tensor,origin,phase-data,shakemap,","nst":249,"dmin":3.109,"rms":1.09,"gap":51,"magType":"mww","type":"earthquake","title":"M 7.3 - 52 km W of Puerto Madero, Mexico"},"geometry":{"type":"Point","coordinates":[-92.8969,14.6361,22]},"id":"us7000t1bu"}],"bbox":[-152.314,-33.8063,5.55,179.4727,62.269,226.084]}
